ONEWEB-0427             
1 50499U 21132AG  25183.63677918 -.00000224  00000+0 -60106-3 0  9997
2 50499  87.9131  44.8894 0001717  78.9856 281.1469 13.18593983175547
ONEWEB-0429             
1 50500U 21132AH  25183.85137625  .00000035  00000+0  55285-4 0  9991
2 50500  87.9135  44.8747 0001922  85.4487 274.6865 13.18643080175543
ONEWEB-0430             
1 50501U 21132AJ  25183.83993879  .00000011  00000+0 -40105-5 0  9992
2 50501  87.9135  44.8708 0002055  78.9632 281.1731 13.18685316175585
ONEWEB-0432             
1 50502U 21132AK  25183.87154423  .00000039  00000+0  64920-4 0  9990
2 50502  87.9125  44.8487 0001824  53.5302 306.5998 13.18686474175544
ONEWEB-0440             
1 50503U 21132AL  25183.85953694  .00000020  00000+0  18235-4 0  9994
2 50503  87.9136  44.8555 0001890  97.0481 263.0866 13.18613494175539
ONEWEB-0450             
1 50504U 21132AM  25183.85312991  .00000038  00000+0  63921-4 0  9995
2 50504  87.9133  44.8839 0002158  85.9688 274.1690 13.18636246175566
ONEWEB-0410             
1 51622U 22012A   25183.75901378  .00000039  00000+0  68040-4 0  9995
2 51622  87.9061  75.4028 0000722  37.2660 322.8522 13.17647979167686
ONEWEB-0411             
1 51623U 22012B   25183.83015569  .00000014  00000+0  30986-5 0  9995
2 51623  87.8833 105.9385 0002521  69.7519 290.3880 13.10377168163539
